[
    {
        "Altitude(m)": 611967.1923027065,
        "Argument of Periapsis(deg)": 0.0,
        "Eccentricity": 0.0,
        "Inclination(deg)": 60.0,
        "Latitude(deg)": 59.14020210582391,
        "Longitude(deg)": 161.09222738282747,
        "Mean Anomaly(deg)": 98.18180000000002,
        "RAAN(deg)": 155.0,
        "Satellite Name": "Test1 688",
        "Satellite Number": 688,
        "Semi-Major Axis(m)": 6980739.136638005,
        "Time(s)": 0
    },
    {
        "Altitude(m)": 611934.3915415186,
        "Argument of Periapsis(deg)": 0.00010418945913296404,
        "Eccentricity": 0.0,
        "Inclination(deg)": 60.0,
        "Latitude(deg)": 58.98656228952302,
        "Longitude(deg)": 162.2154733705784,
        "Mean Anomaly(deg)": 98.80190614546183,
        "RAAN(deg)": 154.99957995086027,
        "Satellite Name": "Test1 688",
        "Satellite Number": 688,
        "Semi-Major Axis(m)": 6980739.136638005,
        "Time(s)": 10
    }
]